     2.11           N: GPS NAV DATA                         RINEX VERSION / TYPE
teqc  2019Feb25     CORS-ADM Account    20260508 19:45:01UTCPGM / RUN BY / DATE
Linux 2.4.21-27.ELsmp|Opteron|gcc|Linux 64|=+               COMMENT
     2.10           N: GPS NAV DATA                         COMMENT
rvacn.e(1404.07)                        2026-05-08T19:27 UTCCOMMENT
This file contains the validated broadcast navigation       COMMENT
messages from the following files:                          COMMENT
aaaa1280.26n, abmf128s.26n, abpo128s.26n, albh128s.26n,     COMMENT
alic128s.26n, areq128s.26n, aruc128s.26n, baie128s.26n,     COMMENT
bake128s.26n, brew128s.26n, brst128s.26n, brux128s.26n,     COMMENT
bshm128s.26n, bucu128s.26n, cebr128s.26n, chpi128s.26n,     COMMENT
chum128s.26n, chur128s.26n, ckis128s.26n, coco128s.26n,     COMMENT
cro1128s.26n, darw128s.26n, dav1128s.26n, dgar128s.26n,     COMMENT
djig128s.26n, dlf1128s.26n, drao128s.26n, dubo128s.26n,     COMMENT
ebre128s.26n, faa1128s.26n, fair128s.26n, falk128s.26n,     COMMENT
flin128s.26n, glps128s.26n, glsv128s.26n, gode128s.26n,     COMMENT
guam128s.26n, harb128s.26n, hers128s.26n, hlfx128s.26n,     COMMENT
hob2128s.26n, hofn128s.26n, holb128s.26n, hrao128s.26n,     COMMENT
iqal128s.26n, ista128s.26n, joze128s.26n, jplm128s.26n,     COMMENT
karr128s.26n, kat1128s.26n, kiri128s.26n, kiru128s.26n,     COMMENT
kokb128s.26n, koug128s.26n, kour128s.26n, lmmf128s.26n,     COMMENT
lpal128s.26n, m0se128s.26n, mac1128s.26n, maju128s.26n,     COMMENT
mal2128s.26n, mar6128s.26n, mas1128s.26n, mat1128s.26n,     COMMENT
mate128s.26n, maw1128s.26n, mcm4128s.26n, mdo1128s.26n,     COMMENT
medi128s.26n, met3128s.26n, mkea128s.26n, mobs128s.26n,     COMMENT
mro1128s.26n, nain128s.26n, nano128s.26n, naur128s.26n,     COMMENT
nico128s.26n, nklg128s.26n, nlib128s.26n, nnor128s.26n,     COMMENT
not1128s.26n, nrc1128s.26n, onsa128s.26n, orid128s.26n,     COMMENT
palm128s.26n, pert128s.26n, picl128s.26n, pie1128s.26n,     COMMENT
pimo128s.26n, pohn128s.26n, prds128s.26n, ptvl128s.26n,     COMMENT
qaq1128s.26n, qiki128s.26n, reso128s.26n, reun128s.26n,     COMMENT
reyk128s.26n, riga128s.26n, sant128s.26n, sask128s.26n,     COMMENT
sch2128s.26n, scor128s.26n, seyg128s.26n, solo128s.26n,     COMMENT
stj3128s.26n, stjo128s.26n, stpm128s.26n, suth128s.26n,     COMMENT
suwn128s.26n, sydn128s.26n, thtg128s.26n, thu2128s.26n,     COMMENT
tid1128s.26n, tow2128s.26n, tuva128s.26n, unbj128s.26n,     COMMENT
usud128s.26n, vacs128s.26n, vald128s.26n, vill128s.26n,     COMMENT
vis0128s.26n, warn128s.26n, whit128s.26n, will128s.26n,     COMMENT
wsrt128s.26n, xmis128s.26n, yar2128s.26n, yebe128s.26n,     COMMENT
yell128s.26n, zim2128s.26n, zimm128s.26n                    COMMENT
    1.6760D-08  2.2350D-08 -1.1920D-07 -1.1920D-07          ION ALPHA
    1.1060D+05  9.8300D+04 -1.3110D+05 -1.9660D+05          ION BETA
    0.000000000000D+00 8.881784197000D-16    61440     2418 DELTA-UTC: A0,A1,T,W
                                                            END OF HEADER
 3 26  5  7 22  0  0.0 4.736874252558D-04-1.534772309242D-11 0.000000000000D+00
    7.800000000000D+01-5.015625000000D+01 3.985880313628D-09-2.749459062875D+00
   -2.549961209297D-06 6.798747926950D-03 3.496184945107D-06 5.153593791962D+03
    4.248000000000D+05 1.434236764908D-07 2.996384632430D+00-2.980232238770D-08
    9.943955321996D-01 3.290937500000D+02 1.219149889229D+00-7.875685196758D-09
    2.678683006471D-11 1.000000000000D+00 2.417000000000D+03 0.000000000000D+00
    2.800000000000D+00 0.000000000000D+00 1.396983861923D-09 7.800000000000D+01
    4.176180000000D+05 4.000000000000D+00
 4 26  5  7 22  0  0.0 5.618855357170D-05 1.364242052659D-12 0.000000000000D+00
    3.000000000000D+00-8.656250000000D+01 4.215532736716D-09 1.986348690482D-01
   -4.597008228302D-06 3.740869229659D-03 8.147209882736D-06 5.153710002899D+03
    4.248000000000D+05 0.000000000000D+00-2.217898590184D+00 1.676380634308D-08
    9.712967623174D-01 2.241562500000D+02-2.873911826992D+00-7.896757503075D-09
   -9.286101089098D-12 1.000000000000D+00 2.417000000000D+03 0.000000000000D+00
    2.000000000000D+00 0.000000000000D+00-4.656613000000D-09 5.150000000000D+02
    4.176600000000D+05 4.000000000000D+00
 5 26  5  7 22  0  0.0-2.326969988644D-04-4.547473508865D-13 0.000000000000D+00
    1.010000000000D+02-3.284375000000D+01 4.312322482684D-09 8.470046997513D-01
   -1.639127731323D-06 5.554957082495D-03 4.082918167114D-06 5.153739898682D+03
    4.248000000000D+05-7.636845111847D-08 2.935795507324D+00 4.842877388000D-08
    9.808454158743D-01 3.140000000000D+02 1.430905707103D+00-8.135696027253D-09
    2.857261873569D-12 1.000000000000D+00 2.417000000000D+03 0.000000000000D+00
    2.000000000000D+00 0.000000000000D+00-1.071021000000D-08 1.010000000000D+02
    4.207200000000D+05 4.000000000000D+00
 6 26  5  7 22  0  0.0-6.054383702576D-04 3.296918293927D-12 0.000000000000D+00
    9.000000000000D+01 6.868750000000D+01 4.010881355022D-09-1.474207081614D+00
    3.352761268616D-06 3.741803462617D-03 5.455687642097D-06 5.153678377151D+03
    4.248000000000D+05-4.097819328308D-08 1.959270726370D+00-8.940696716309D-08
    9.861334521880D-01 2.906250000000D+02-5.255662521725D-01-7.934973380634D-09
    1.771502361613D-10 1.000000000000D+00 2.417000000000D+03 0.000000000000D+00
    2.000000000000D+00 0.000000000000D+00 3.725290298462D-09 9.000000000000D+01
    4.176000000000D+05
 7 26  5  7 22  0  0.0-1.820283941925D-04-4.320099833421D-12 0.000000000000D+00
    1.070000000000D+02-2.093750000000D+01 4.599120143243D-09-2.292676857639D+00
   -1.132488250732D-06 2.082665241323D-02 7.746741175652D-06 5.153603078842D+03
    4.248000000000D+05 2.644956111908D-07-1.209530946847D+00-5.029141902924D-08
    9.506526753455D-01 2.206250000000D+02-1.971084348695D+00-7.617817312668D-09
    3.378712165495D-10 1.000000000000D+00 2.417000000000D+03 0.000000000000D+00
    2.000000000000D+00 0.000000000000D+00-1.071020960808D-08 1.070000000000D+02
    4.211890000000D+05 4.000000000000D+00
 9 26  5  7 22  0  0.0 7.525654509664D-04-4.092726157978D-12 0.000000000000D+00
    8.500000000000D+01-8.643750000000D+01 4.283035548479D-09 1.100986612237D+00
   -4.665926098824D-06 3.397730877623D-03 7.728114724159D-06 5.153747121811D+03
    4.248000000000D+05 5.587935447693D-09-2.282580023809D+00-6.146728992462D-08
    9.655716719130D-01 2.319062500000D+02 2.046309618084D+00-7.913186758848D-09
    1.357199389945D-11 1.000000000000D+00 2.417000000000D+03 0.000000000000D+00
    2.000000000000D+00 0.000000000000D+00 4.656612873077D-10 8.500000000000D+01
    4.176290000000D+05 4.000000000000D+00
11 26  5  7 22  0  0.0-3.478317521513D-04 1.261923898710D-11 0.000000000000D+00
    6.300000000000D+01 5.696875000000D+01 4.570904682241D-09-2.721345314727D-01
    3.039836883545D-06 2.253594459035D-03 5.077570676804D-06 5.153608539581D+03
    4.248000000000D+05-2.980232238770D-08 1.976607322337D+00 1.676380634308D-08
    9.630290398307D-01 2.852812500000D+02-2.345549117673D+00-8.177126324419D-09
    1.228622605635D-10 1.000000000000D+00 2.417000000000D+03 0.000000000000D+00
    2.000000000000D+00 0.000000000000D+00-8.847564458847D-09 8.310000000000D+02
    4.176180000000D+05 4.000000000000D+00
16 26  5  7 22  0  0.0 2.589626237750D-04 6.934897101019D-12 0.000000000000D+00
    8.400000000000D+01 7.468750000000D+00 4.663051377664D-09 1.552539616798D+00
    2.775341272354D-07 1.500170375220D-02 7.703900337219D-06 5.153674598694D+03
    4.248000000000D+05-2.793967723846D-07-7.447227326911D-02-5.587935447693D-08
    9.583438515767D-01 2.349375000000D+02 9.337469467883D-01-8.082836682592D-09
   -2.989410235221D-10 1.000000000000D+00 2.417000000000D+03 0.000000000000D+00
    2.000000000000D+00 0.000000000000D+00-1.071020960808D-08 8.400000000000D+01
    4.176000000000D+05
18 26  5  7 22  0  0.0-3.581116907299D-04 9.322320693173D-12 0.000000000000D+00
    2.800000000000D+01 6.121875000000D+01 4.278749655669D-09-1.502396904427D+00
    3.011897206306D-06 5.933932377957D-03 4.667788743973D-06 5.153629329681D+03
    4.248000000000D+05 4.470348358154D-08 1.953293774137D+00-5.215406417847D-08
    9.711038604766D-01 2.933750000000D+02-2.875088001424D+00-8.016762501765D-09
    1.978653847446D-10 1.000000000000D+00 2.417000000000D+03 0.000000000000D+00
    2.000000000000D+00 0.000000000000D+00-8.381903000000D-09 2.840000000000D+02
    4.176600000000D+05 4.000000000000D+00
21 26  5  7 22  0  0.0 4.148264415562D-04-5.684341886081D-13 0.000000000000D+00
    2.290000000000D+02-3.637500000000D+01 4.664122850867D-09 2.835203645132D+00
   -1.829117536545D-06 7.694016676396D-04 3.803521394730D-06 5.153546943665D+03
    4.248000000000D+05-2.421438694000D-08 3.000651205213D+00 5.774199962616D-08
    9.638018336207D-01 3.082500000000D+02-1.747501947042D-01-8.203555996750D-09
    2.642967233051D-11 1.000000000000D+00 2.417000000000D+03 0.000000000000D+00
    2.000000000000D+00 0.000000000000D+00-9.778887033463D-09 4.850000000000D+02
    4.176290000000D+05 4.000000000000D+00
25 26  5  7 22  0  0.0 4.244074225426D-04-2.842170943040D-12 0.000000000000D+00
    5.000000000000D+00 8.625000000000D+00 4.754126599884D-09-3.116892073260D+00
    5.047768354416D-07 1.286716992036D-02 6.897374987602D-06 5.153693994522D+03
    4.248000000000D+05 1.061707735062D-07-1.858529119884D-01-1.061707735062D-07
    9.475656153742D-01 2.367500000000D+02 1.160536947011D+00-7.856398679111D-09
   -1.485776174256D-10 1.000000000000D+00 2.417000000000D+03 0.000000000000D+00
    2.000000000000D+00 0.000000000000D+00 5.587935447693D-09 5.000000000000D+00
    4.176190000000D+05 4.000000000000D+00
